VHHH 041000Z 33004KT 290V010 9999 FEW025 33/24 Q1001 NOSIG
VHHH 040930Z 27003KT 240V300 9999 FEW025 33/24 Q1001 NOSIG
VHHH 040900Z 26005KT 9999 FEW025 33/24 Q1001 NOSIG
VHHH 040830Z 27005KT 9999 FEW025 33/24 Q1001 NOSIG
VHHH 040800Z 28006KT 9999 FEW025 33/24 Q1001 NOSIG
VHHH 040730Z 30007KT 9999 FEW028 33/24 Q1001 NOSIG
VHHH 040700Z 30006KT 9999 FEW028 33/24 Q1001 NOSIG
VHHH 040630Z 32010KT 9999 FEW028 33/23 Q1001 NOSIG
VHHH 040600Z 32009KT 9999 FEW028 33/24 Q1002 NOSIG
VHHH 040530Z 31009KT 9999 FEW028 32/24 Q1002 NOSIG
VHHH 040500Z 32009KT 9999 FEW028 32/24 Q1002 NOSIG
VHHH 040430Z 32009KT 9999 FEW028 31/25 Q1003 NOSIG
VHHH 040400Z 32009KT 9999 FEW028 31/24 Q1003 NOSIG
VHHH 040330Z 32009KT 9999 FEW028 31/25 Q1003 NOSIG
VHHH 040300Z 33009KT 9999 FEW020 31/25 Q1003 NOSIG
VHHH 040230Z 32009KT 9999 FEW020 30/25 Q1003 NOSIG
VHHH 040200Z 33008KT 9999 FEW020 30/25 Q1003 NOSIG
VHHH 040130Z 32007KT 9999 FEW020 30/26 Q1003 NOSIG
VHHH 040100Z 33007KT 9999 FEW010 30/26 Q1003 NOSIG
VHHH 040030Z 33007KT 9999 FEW010 30/26 Q1003 NOSIG
VHHH 040000Z 27004KT 250V310 9999 FEW010 29/26 Q1002 NOSIG
VHHH 032330Z VRB03KT 9999 FEW010 28/26 Q1002 NOSIG
VHHH 032300Z 24003KT 9999 FEW010 28/26 Q1002 NOSIG
VHHH 032230Z VRB02KT 9999 FEW010 28/25 Q1002 NOSIG
VHHH 032200Z 19003KT 9999 FEW010 28/24 Q1002 NOSIG
VHHH 032130Z 22002KT 9999 FEW035 28/24 Q1002 NOSIG
VHHH 032100Z 24003KT 9999 FEW035 28/25 Q1002 NOSIG
VHHH 032030Z 24003KT 9999 FEW035 28/25 Q1002 NOSIG
