VHHH 021600Z 10012KT 9999 FEW012 SCT022 28/25 Q1003 NOSIG
VHHH 021530Z 10014KT 9999 FEW012 SCT022 28/25 Q1003 NOSIG
VHHH 021500Z 10011KT 9999 FEW010 SCT020 27/25 Q1003 NOSIG
VHHH 021430Z 10011KT 9999 FEW010 SCT020 27/25 Q1003 NOSIG
VHHH 021400Z 10012KT 9999 FEW010 SCT020 27/25 Q1003 NOSIG
VHHH 021330Z 10014KT 9999 -SHRA FEW010 SCT020 27/25 Q1003 NOSIG
VHHH 021300Z 10014KT 9999 -SHRA FEW010 SCT020 27/25 Q1002 NOSIG
VHHH 021230Z 11015KT 8000 -SHRA FEW010 SCT020 27/25 Q1002 NOSIG
VHHH 021200Z 10017KT 9999 FEW010 SCT020 27/24 Q1001 NOSIG
VHHH 021130Z 10014KT 9999 FEW010 SCT020 27/24 Q1001 NOSIG
VHHH 021100Z 11017KT 9999 FEW010 SCT020 27/24 Q1001 NOSIG
VHHH 021030Z 10016KT 9999 FEW010 SCT020 27/24 Q1001 NOSIG
VHHH 021000Z 10013KT 9999 FEW010 SCT022 28/24 Q1000 NOSIG
VHHH 020930Z 09011KT 9999 FEW010 SCT022 28/24 Q1000 NOSIG
VHHH 020900Z 10013KT 9999 FEW010 SCT022 28/24 Q1000 NOSIG
VHHH 020830Z 09012KT 9999 FEW010 SCT020 27/24 Q1000 NOSIG
VHHH 020800Z 10013KT 9999 FEW010 SCT020 27/24 Q1000 NOSIG
VHHH 020730Z 09014KT 9999 FEW010 SCT020 27/25 Q1000 NOSIG
VHHH 020700Z 10016KT 9999 FEW008 SCT020 27/25 Q1000 NOSIG
VHHH 020630Z 09015KT 9999 VCSH FEW008 SCT020 27/25 Q1000 NOSIG
VHHH 020600Z 09012KT 9999 FEW008 SCT020 27/25 Q1000 RERA TEMPO 3000 SHRA FEW010CB SCT020
VHHH 020530Z 10016KT 8000 SHRA FEW008 SCT020 27/25 Q1000 TEMPO 3000 SHRA FEW010CB SCT020
VHHH 020500Z 10014KT 8000 SHRA FEW008 SCT020 27/25 Q1000 RERA TEMPO 3000 SHRA FEW010CB SCT020
VHHH 020450Z 09011G21KT 2400 +SHRA FEW008 SCT025 26/25 Q1001 TEMPO 3000 SHRA FEW010CB SCT020
VHHH 020430Z 10016G26KT 3900 1900E +SHRA FEW008 SCT025 26/25 Q1001 TEMPO 3000 SHRA FEW010CB SCT020
VHHH 020409Z 10016KT 9999 -SHRA FEW008 SCT025 27/25 Q1000 RERA NOSIG
VHHH 020400Z 10017KT 9999 SHRA FEW008 SCT025 27/25 Q1000 NOSIG
VHHH 020353Z 10016G27KT 9999 4100E SHRA FEW007 SCT025 27/25 Q1001 NOSIG
VHHH 020330Z 10017KT 9999 -SHRA FEW007 SCT025 27/25 Q1000 TEMPO 4000 SHRA
VHHH 020300Z 09016KT 9999 -SHRA FEW007 SCT025 27/25 Q1001 TEMPO 4000 SHRA
VHHH 020230Z 09014KT 9999 -SHRA FEW010 SCT022 27/25 Q1000 NOSIG
VHHH 020216Z 09017KT 9999 -SHRA FEW010 SCT020 27/25 Q1000 RERA NOSIG
VHHH 020204Z 10020KT 8000 SHRA FEW010 SCT020 26/25 Q1000 TEMPO 12025G35KT 2500 SHRA FEW010CB SCT020
VHHH 020200Z 10019G29KT 9000 -SHRA FEW010 SCT020 26/25 Q1000 TEMPO 12025G35KT 2500 SHRA FEW010CB SCT020
VHHH 020130Z 09017KT 7000 -SHRA FEW010 SCT020 26/25 Q1000 RERA TEMPO 12025G35KT 2500 SHRA FEW010CB SCT020
VHHH 020117Z 09017KT 3600 1400W R07R/P2000D R25L/P2000N R07L/1500D R25R/P2000N SHRA FEW010 SCT020 26/24 Q1000 TEMPO 12025G35KT 2500 SHRA FEW010CB SCT020
VHHH 020116Z 09017KT 9999 1300W R07R/P2000D R25L/P2000N R07L/P2000N R25R/P2000N SHRA FEW010 SCT020 26/25 Q1000 TEMPO 12025G35KT 2500 SHRA FEW010CB SCT020
VHHH 020110Z 09017KT 9999 -SHRA FEW010 SCT020 26/25 Q1000 RERA TEMPO 12025G35KT 2500 SHRA FEW010CB SCT020
VHHH 020100Z 09018KT 9000 R07R/P2000N R25L/P2000N R07L/1200N R25R/P2000U +SHRA FEW010 SCT020 26/25 Q0999 TEMPO 12025G35KT 2500 SHRA FEW010CB SCT020
VHHH 020052Z 10018KT 4600 R07R/P2000N R25L/P2000N R07L/1200N R25R/P2000N +SHRA FEW010 SCT025 26/25 Q0999 TEMPO 12025G35KT 2500 SHRA FEW010CB SCT020
VHHH 020050Z 10018KT 7000 R07R/P2000N R25L/P2000N R07L/1200N R25R/P2000U SHRA FEW010 SCT025 26/25 Q0999 RERA TEMPO 12025G35KT 2500 SHRA FEW010CB SCT020
VHHH 020030Z 09016G27KT 2900 1000W R07R/2000U R25L/P2000N R07L/1100N R25R/P2000D +SHRA FEW010 SCT025 26/25 Q0999 TEMPO 1500 TSRA +SHRA FEW010CB SCT020 BKN040
VHHH 020016Z 09015KT 1300 1000W R07R/P2000D R25L/1600U R07L/1300D R25R/1300D +SHRA FEW010 SCT025 26/25 Q0999 TEMPO 1500 TSRA +SHRA FEW010CB SCT020 BKN040
VHHH 020007Z 09016KT 2000 1100E R07R/P2000U R25L/1800U R07L/1200N R25R/1300D +SHRA FEW010 SCT025 26/25 Q0998 TEMPO 1500 TSRA +SHRA FEW010CB SCT020 BKN040
VHHH 020000Z 10016KT 3200 1300E R07R/P2000D R25L/P2000D R07L/1400N R25R/1600D +SHRA FEW010 SCT025 26/25 Q0998 TEMPO 1500 TSRA +SHRA FEW010CB SCT020 BKN040
VHHH 012337Z 10015KT 2600 +SHRA FEW012 SCT025 26/25 Q0998 TEMPO 1500 TSRA +SHRA FEW010CB SCT020 BKN040
VHHH 012330Z 10017G27KT 4600 +SHRA FEW012 SCT025 26/25 Q0998 TEMPO 1500 TSRA +SHRA FEW010CB SCT020 BKN040
VHHH 012320Z 10017G31KT 1200 1000W R07R/P2000N R25L/P2000D R07L/1500D R25R/1500D +SHRA FEW010 SCT025 26/25 Q0998 TEMPO 1500 TSRA +SHRA FEW010CB SCT020 BKN040
VHHH 012315Z 09016G27KT 2500 R07R/P2000N R25L/P2000N R07L/1700D R25R/0700N +SHRA FEW010 SCT025 26/25 Q0998 TEMPO 1500 TSRA +SHRA FEW010CB SCT020 BKN040
VHHH 012311Z 09017G29KT 3400 R07R/P2000N R25L/P2000N R07L/1900D R25R/0750N +SHRA FEW010 SCT025 26/25 Q0998 TEMPO 2500 TSRA +SHRA FEW010CB SCT020 BKN040
VHHH 012300Z 10019G31KT 6000 R07R/P2000N R25L/P2000N R07L/1900D R25R/0750N +SHRA FEW010 SCT025 26/25 Q0998 TEMPO 2500 TSRA +SHRA FEW010CB SCT020 BKN040
VHHH 012242Z 09016G31KT 2100 R07R/P2000D R25L/P2000D R07L/1800N R25R/0750N +SHRA FEW012 SCT025 26/25 Q0998 TEMPO 2500 TSRA +SHRA FEW010CB SCT020 BKN040
VHHH 012230Z 09013KT 2900 R07R/P2000U R25L/P2000N R07L/1900D R25R/0800N +SHRA FEW012 SCT025 26/25 Q0997 TEMPO 2500 TSRA +SHRA FEW010CB SCT020 BKN040
VHHH 012227Z 09014KT 2900 R07R/P2000D R25L/P2000N R07L/P2000D R25R/0800N +SHRA FEW012 SCT025 26/25 Q0997 TEMPO 2500 TSRA +SHRA FEW010CB SCT020 BKN040
VHHH 012223Z 09014KT 3600 R07R/P2000N R25L/P2000N R07L/P2000N R25R/0900N +SHRA FEW012 SCT025 26/25 Q0997 TEMPO 4000 SHRA FEW010CB SCT020 BKN040
VHHH 012214Z 09017G27KT 9999 R07R/P2000N R25L/P2000N R07L/P2000D R25R/0900N SHRA FEW012 SCT025 27/25 Q0997 TEMPO 4000 SHRA FEW010CB SCT020 BKN040
VHHH 012200Z 09015KT 8000 R07R/P2000N R25L/P2000N R07L/P2000D R25R/1000N +SHRA FEW012 SCT025 26/25 Q0997 TEMPO 4000 SHRA FEW010CB SCT020 BKN040
VHHH 012154Z 09017KT 4400 R07R/P2000N R25L/P2000N R07L/P2000D R25R/1000N +SHRA FEW012 SCT025 26/25 Q0997 TEMPO 4000 SHRA FEW010CB SCT020 BKN040
VHHH 012130Z 09018G28KT 6000 R07R/P2000N R25L/P2000N R07L/P2000N R25R/1100N +SHRA FEW012 SCT025 26/25 Q0996 TEMPO 4000 SHRA FEW010CB SCT020 BKN040
VHHH 012125Z 09016G27KT 8000 R07R/P2000N R25L/P2000N R07L/P2000N R25R/1100N +SHRA FEW012 SCT025 26/25 Q0996 TEMPO 4000 SHRA FEW010CB SCT020 BKN040
VHHH 012100Z 09015KT 9999 R07R/P2000N R25L/P2000N R07L/P2000N R25R/1100N SHRA FEW012 SCT025 26/25 Q0996 TEMPO 4000 SHRA FEW010CB SCT020 BKN040
VHHH 012030Z 09017G27KT 9999 R07R/P2000N R25L/P2000N R07L/P2000N R25R/1100N SHRA FEW008 SCT025 26/24 Q0995 TEMPO 4000 SHRA FEW010CB SCT020 BKN040
VHHH 012000Z 10020G32KT 8000 R07R/P2000N R25L/P2000N R07L/P2000N R25R/1200N SHRA FEW008 SCT025 26/24 Q0995 TEMPO 4000 +SHRA FEW010CB SCT020 BKN040
VHHH 011953Z 10020G32KT 7000 R07R/P2000N R25L/P2000N R07L/P2000N R25R/1200N SHRA FEW008 SCT025 26/24 Q0995 TEMPO 4000 +SHRA FEW010CB SCT020 BKN040
VHHH 011930Z 10024G36KT 6000 R07R/P2000N R25L/P2000N R07L/P2000N R25R/1200N +SHRA FEW008 SCT025 26/24 Q0995 TEMPO 3000 +SHRA FEW010CB SCT020 BKN040
VHHH 011910Z 10024G37KT 4800 R07R/P2000N R25L/P2000N R07L/P2000N R25R/1200N +SHRA FEW008 SCT025 26/24 Q0995 TEMPO 3000 +SHRA FEW010CB SCT020 BKN040
VHHH 011900Z 10024G37KT 5000 R07R/P2000N R25L/P2000N R07L/P2000N R25R/1100U +SHRA FEW008 SCT025 26/24 Q0995 TEMPO 3000 +SHRA FEW010CB SCT020 BKN040
VHHH 011853Z 09022G37KT 4400 R07R/P2000N R25L/P2000N R07L/P2000N R25R/1100N +SHRA FEW008 SCT025 26/24 Q0995 TEMPO 3000 +SHRA FEW010CB SCT020 BKN040
VHHH 011830Z 09022G32KT 2200 1300E R07R/P2000D R25L/P2000N R07L/P2000U R25R/1000N +SHRA FEW008 SCT025 25/24 Q0994 TEMPO 3000 +SHRA FEW010CB SCT020 BKN040
VHHH 011823Z 09023G38KT 2900 R07R/P2000D R25L/1600U R07L/P2000U R25R/1000N +SHRA FEW010 SCT025 26/24 Q0994 TEMPO 3000 +SHRA FEW010CB SCT020 BKN040
VHHH 011800Z 08026G40KT 3300 R07R/P2000D R25L/1100N R07L/1500U R25R/1100U +SHRA FEW010 SCT025 26/24 Q0994 TEMPO 3000 +SHRA FEW010CB SCT020 BKN040
VHHH 011730Z 09030G43KT 4100 R07R/P2000U R25L/1100N R07L/P2000N R25R/1600N +SHRA FEW010 SCT025 26/24 Q0993 TEMPO 09045G60KT 1500 +SHRA FEW008CB SCT020 BKN040
VHHH 011718Z 08033G45KT 4500 R07R/P2000D R25L/1000D R07L/1900D R25R/1800U +SHRA FEW010 SCT025 26/24 Q0993 TEMPO 09045G60KT 1500 +SHRA FEW008CB SCT020 BKN040
VHHH 011700Z 08034G54KT 2900 R07R/2000D R25L/0900N R07L/1100D R25R/1100U +SHRA FEW010 SCT025 26/24 Q0992 TEMPO 09045G60KT 1500 +SHRA FEW008CB SCT020 BKN040
VHHH 011633Z 07038G50KT 3400 R07R/1500N R25L/1000N R07L/2000U R25R/1600D +SHRA FEW012 SCT025 26/24 Q0991 TEMPO 07050G70KT 1500 TSRA +SHRA FEW008CB SCT020 BKN040
VHHH 011630Z 07038G49KT 3500 R07R/1400N R25L/1000N R07L/2000N R25R/1600N SHRA FEW012 SCT025 26/24 Q0991 TEMPO 07050G70KT 1500 TSRA +SHRA FEW008CB SCT020 BKN040
VHHH 011600Z 07041G52KT 4500 R07R/1800D R25L/1300N R07L/2000U R25R/1600U SHRA FEW012 SCT025 26/24 Q0990 RERA TEMPO 07050G70KT 1500 TSRA +SHRA FEW008CB SCT020 BKN040
VHHH 011542Z 07041G52KT 3700 R07R/1500N R25L/1200N R07L/1600U R25R/1400N +SHRA FEW012 SCT025 26/24 Q0989 TEMPO 03050G70KT 1500 TSRA +SHRA FEW008CB SCT020 BKN040
VHHH 011530Z 05037G53KT 2900 R07R/1600D R25L/1400D R07L/1600U R25R/1200D +SHRA FEW012 SCT025 26/25 Q0989 TEMPO 03050G70KT 1500 TSRA +SHRA FEW008CB SCT020 BKN040
VHHH 011517Z 04039G53KT 4000 R07R/1300N R25L/1300D R07L/1800D R25R/1700N +SHRA FEW010 SCT025 26/24 Q0988 TEMPO 03050G70KT 1500 TSRA +SHRA FEW008CB SCT020 BKN040
VHHH 011513Z 04041G54KT 4200 +SHRA FEW010 SCT025 27/24 Q0988 TEMPO 03050G70KT 1500 TSRA +SHRA FEW008CB SCT020 BKN040
VHHH 011500Z 02044G60KT 2900 R07R/1500U R25L/1900U R07L/1400N R25R/1200N +SHRA FEW010 SCT025 26/24 Q0988 TEMPO 03050G70KT 1500 TSRA +SHRA FEW008CB SCT020 BKN040
VHHH 011451Z 02044G59KT 2800 R07R/1000D R25L/1500D R07L/1400N R25R/1900D +SHRA FEW008 SCT025 26/24 Q0989 TEMPO 01050G70KT 1500 TSRA +SHRA FEW008CB SCT020 BKN040
VHHH 011444Z 01043G54KT 4100 +SHRA FEW008 SCT025 26/24 Q0989 TEMPO 01050G70KT 1500 TSRA +SHRA FEW008CB SCT020 BKN040
VHHH 011435Z 01040G53KT 3700 1800W R07R/P2000U R25L/P2000U R07L/1200U R25R/1700U SHRA FEW008 SCT025 26/24 Q0989 RERA TEMPO 01050G70KT 1500 TSRA +SHRA FEW008CB SCT020 BKN040
VHHH 011430Z 01039G54KT 2300 R07R/P2000U R25L/P2000U R07L/1200D R25R/1500N +SHRA FEW008 SCT025 25/24 Q0989 TEMPO 01050G70KT 1500 TSRA +SHRA FEW008CB SCT020 BKN040
VHHH 011400Z 01041G57KT 1900 R07R/1800D R25L/1300N R07L/1300N R25R/1300D +SHRA FEW008 SCT025 25/24 Q0990 TEMPO 01050G70KT 1500 TSRA +SHRA FEW008CB SCT020 BKN040
VHHH 011347Z 36039G62KT 1800 R07R/P2000U R25L/1700D R07L/1300D R25R/1400D +SHRA FEW008 SCT025 25/24 Q0990 TEMPO 36055G75KT 1500 TSRA +SHRA FEW008CB SCT020 BKN040
VHHH 011330Z 01036G48KT 2200 R07R/P2000D R25L/P2000D R07L/1100N R25R/1800N +SHRA FEW008 SCT025 25/24 Q0991 TEMPO 36055G75KT 1500 TSRA +SHRA FEW008CB SCT020 BKN040
VHHH 011300Z 35041KT 1900 +SHRA FEW008 SCT025 25/24 Q0991 TEMPO 36055G75KT 1500 TSRA +SHRA FEW008CB SCT020 BKN040
VHHH 011253Z 35042G53KT 2700 +SHRA FEW010CB SCT025 25/24 Q0991 TEMPO 36055G75KT 1500 TSRA +SHRA FEW008CB SCT020 BKN040
VHHH 011230Z 34040KT 3200 +SHRA FEW010CB SCT025 25/24 Q0991 TEMPO 36055G75KT 1500 TSRA +SHRA FEW008CB SCT020 BKN040
VHHH 011223Z 34041G51KT 2900 +SHRA FEW010CB SCT025 25/24 Q0991 TEMPO 36055G75KT 1500 TSRA +SHRA FEW008CB SCT020 BKN040
VHHH 011200Z 34040KT 3500 +SHRA FEW010CB SCT025 26/24 Q0992 TEMPO 36050G70KT 1500 TSRA +SHRA FEW008CB SCT020 BKN040
VHHH 011138Z 34039G52KT 4900 +SHRA FEW012 SCT025 26/24 Q0992 TEMPO 36045G65KT 2500 TSRA SHRA FEW010CB SCT025
VHHH 011130Z 34038G52KT 6000 +SHRA FEW012 SCT025 26/24 Q0993 TEMPO 36045G65KT 2500 TSRA SHRA FEW010CB SCT025
VHHH 011100Z 34036KT 6000 SHRA FEW012 SCT025 26/24 Q0994 TEMPO 36045G65KT 2500 TSRA SHRA FEW010CB SCT025
VHHH 011030Z 34033KT 8000 SHRA FEW015 SCT025 26/24 Q0995 NOSIG
VHHH 011000Z 34032KT 7000 SHRA FEW015 SCT025 26/24 Q0995 NOSIG
VHHH 010940Z 34031G42KT 9999 SHRA FEW015 SCT030 26/24 Q0995 NOSIG
VHHH 010930Z 34032G44KT 9999 -SHRA FEW015 SCT030 27/23 Q0995 NOSIG
VHHH 010900Z 34031G42KT 9999 -SHRA FEW015 SCT030 27/23 Q0996 RERA NOSIG
VHHH 010835Z 34028G38KT 9000 SHRA FEW015 SCT030 27/23 Q0996 NOSIG
VHHH 010830Z 34029KT 9000 -SHRA FEW015 SCT030 27/23 Q0996 NOSIG
VHHH 010815Z 34028KT 9000 -SHRA FEW015 SCT030 27/23 Q0996 RERA NOSIG
VHHH 010800Z 34026KT 7000 SHRA FEW015 SCT030 27/23 Q0996 NOSIG
VHHH 010730Z 34024KT 9999 SHRA FEW015 SCT030 27/23 Q0997 NOSIG
VHHH 010706Z 33022KT 9999 SHRA FEW018 SCT030 27/23 Q0997 NOSIG
VHHH 010700Z 33023KT 9999 -SHRA FEW018 SCT030 27/23 Q0997 NOSIG
VHHH 010630Z 34023KT 9999 -SHRA FEW020 SCT035 28/23 Q0998 WS R25R NOSIG
VHHH 010600Z 34024KT 9999 -SHRA FEW023 SCT035 28/23 Q0998 NOSIG
VHHH 010530Z 34020KT 9999 -SHRA FEW023 SCT035 28/23 Q0999 NOSIG
VHHH 010516Z 34020KT 9999 -SHRA FEW025 SCT035 28/23 Q0999 NOSIG
VHHH 010500Z 34019KT 9999 -SHRA FEW025 SCT035 28/23 Q0999 NOSIG
VHHH 010430Z 34017KT 9999 FEW025 SCT035 29/22 Q1000 NOSIG
VHHH 010400Z 34018KT 9999 FEW025 SCT035 29/23 Q1000 NOSIG
VHHH 010330Z 34017KT 9999 FEW020 SCT035 28/23 Q1001 NOSIG
VHHH 010300Z 33015KT 9999 -SHRA FEW020 SCT035 28/23 Q1001 NOSIG
VHHH 010230Z 33016KT 9999 -SHRA FEW020 SCT035 28/23 Q1001 NOSIG
VHHH 010200Z 34015KT 9999 -SHRA FEW020 SCT035 28/23 Q1001 NOSIG
VHHH 010130Z 34015KT 9999 VCSH FEW020 SCT035 28/22 Q1001 NOSIG
VHHH 010100Z 34017KT 9999 -SHRA FEW020 28/22 Q1001 NOSIG
VHHH 010030Z 34017KT 9999 -SHRA FEW020 28/22 Q1001 NOSIG
VHHH 010000Z 34016KT 9999 FEW023 28/22 Q1001 NOSIG
VHHH 312330Z 34018KT 9999 FEW025 28/22 Q1001 NOSIG
VHHH 312300Z 34017KT 9999 FEW025 27/22 Q1001 NOSIG
VHHH 312230Z 34018KT 9999 -SHRA FEW025 27/22 Q1001 NOSIG
VHHH 312200Z 34018KT 9999 FEW025 28/22 Q1001 NOSIG
VHHH 312140Z 34020KT 9999 FEW030 28/22 Q1001 NOSIG
VHHH 312130Z 34018KT 9999 FEW030 28/22 Q1000 NOSIG
VHHH 312100Z 34018KT 9999 FEW028 SCT035 28/22 Q1001 NOSIG
VHHH 312030Z 34016KT 9999 FEW028 SCT035 28/22 Q1001 NOSIG
VHHH 312000Z 34017KT 9999 FEW028 SCT035 28/22 Q1001 NOSIG
VHHH 311930Z 34015KT 9999 FEW028 SCT035 28/22 Q1001 NOSIG
VHHH 311900Z 34014KT 9999 FEW028 SCT035 28/23 Q1001 NOSIG
VHHH 311830Z 35012KT 9999 FEW028 SCT035 28/23 Q1001 NOSIG
VHHH 311800Z 34013KT 9999 FEW028 SCT035 28/23 Q1002 NOSIG
VHHH 311730Z 34012KT 9999 FEW028 28/23 Q1002 NOSIG
VHHH 311700Z 34012KT 9999 FEW030 28/23 Q1002 NOSIG
VHHH 311630Z 35011KT 9999 FEW025 28/23 Q1003 NOSIG
VHHH 311600Z 34011KT 9999 -SHRA FEW025 29/23 Q1003 NOSIG
VHHH 311530Z 34013KT 9999 FEW025 29/23 Q1003 NOSIG
VHHH 311500Z 34013KT 9999 FEW025 29/23 Q1003 NOSIG
VHHH 311430Z 34009KT 9999 FEW025 29/23 Q1003 NOSIG
VHHH 311400Z 34012KT 9999 FEW025 SCT040 29/23 Q1003 NOSIG
VHHH 311330Z 32012KT 9999 FEW025 SCT045 28/25 Q1003 NOSIG
VHHH 311300Z 30011KT 9999 FEW025 BKN045 28/25 Q1003 NOSIG
VHHH 311230Z 32014KT 9999 -SHRA FEW025 BKN040 28/25 Q1003 TEMPO 34015G25KT 4000 SHRA FEW010CB SCT020
VHHH 311200Z 33017KT 9999 VCSH FEW025 BKN040 28/25 Q1003 TEMPO 34015G25KT 4000 SHRA FEW010CB SCT020
VHHH 311130Z 33014KT 9999 -SHRA FEW025 30/24 Q1002 TEMPO 4000 SHRA FEW010CB SCT020
VHHH 311100Z 32008KT 9999 VCSH FEW025 30/25 Q1002 TEMPO 4000 SHRA FEW010CB SCT020
VHHH 311030Z 32008KT 9999 -SHRA FEW025 30/25 Q1002 NOSIG
VHHH 311000Z 34010KT 9999 FEW025 31/23 Q1002 NOSIG
VHHH 310930Z 34005KT 9999 FEW025 31/23 Q1002 NOSIG
VHHH 310900Z 34009KT 9999 FEW025 31/23 Q1002 NOSIG
VHHH 310830Z 33008KT 9999 -SHRA FEW030 31/23 Q1002 NOSIG
VHHH 310800Z 33009KT 9999 FEW030 30/23 Q1002 NOSIG
VHHH 310730Z 33010KT 9999 FEW030 30/23 Q1002 NOSIG
VHHH 310700Z 33010KT 9999 FEW030 30/23 Q1002 NOSIG
VHHH 310630Z 33012KT 9999 FEW030 30/23 Q1003 NOSIG
VHHH 310600Z 33011KT 9999 FEW030 30/23 Q1003 NOSIG
VHHH 310530Z 34011KT 9999 FEW030 30/23 Q1003 NOSIG
VHHH 310500Z 35010KT 9999 FEW030 30/22 Q1003 NOSIG
VHHH 310430Z 35008KT 9999 FEW030 30/22 Q1004 NOSIG
VHHH 310400Z 36009KT 9999 FEW030 30/22 Q1004 NOSIG
VHHH 310330Z 01009KT 9999 FEW030 30/22 Q1004 NOSIG
VHHH 310300Z 35007KT 9999 FEW030 30/22 Q1004 NOSIG
VHHH 310230Z 01007KT 9999 FEW028 30/22 Q1004 NOSIG
VHHH 310200Z 01008KT 9999 FEW028 29/22 Q1005 NOSIG
VHHH 310130Z 35009KT 9999 FEW028 29/22 Q1005 NOSIG
VHHH 310100Z 36009KT 9999 FEW025 29/22 Q1004 NOSIG
VHHH 310030Z 36008KT 9999 FEW025 28/22 Q1004 NOSIG
VHHH 310000Z 01010KT 9999 FEW025 28/22 Q1004 NOSIG
VHHH 302330Z 36010KT 9999 FEW025 28/22 Q1004 NOSIG
VHHH 302300Z 01010KT 9999 FEW028 28/22 Q1003 NOSIG
VHHH 302230Z 02010KT 9999 FEW028 28/22 Q1003 NOSIG
VHHH 302200Z 01009KT 9999 FEW028 27/22 Q1003 NOSIG
VHHH 302130Z 36009KT 9999 FEW030 27/22 Q1003 NOSIG
VHHH 302100Z 36008KT 9999 FEW030 27/22 Q1003 NOSIG
VHHH 302030Z 36010KT 9999 FEW030 27/22 Q1003 NOSIG
VHHH 302000Z 36010KT 9999 FEW030 27/22 Q1003 NOSIG
VHHH 301930Z 01009KT 9999 FEW030 28/21 Q1003 NOSIG
VHHH 301900Z 01010KT 9999 FEW030 28/21 Q1003 NOSIG
VHHH 301830Z 02011KT 9999 FEW030 28/21 Q1003 NOSIG
VHHH 301800Z 01010KT 9999 FEW030 28/22 Q1003 NOSIG
VHHH 301730Z 35006KT 9999 FEW030 28/22 Q1003 NOSIG
VHHH 301700Z 01009KT 9999 FEW030 28/22 Q1004 NOSIG
VHHH 301630Z 01011KT 9999 FEW030 28/22 Q1004 NOSIG
VHHH 301600Z 01012KT 9999 FEW030 28/22 Q1004 NOSIG
VHHH 301530Z 01014KT 9999 FEW030 29/21 Q1004 NOSIG
VHHH 301500Z 01016KT 9999 FEW025 28/21 Q1005 NOSIG
VHHH 301430Z 01015KT 9999 FEW025 29/22 Q1005 NOSIG
VHHH 301400Z 01012KT 9999 FEW025 29/22 Q1005 NOSIG
VHHH 301330Z 01009KT 9999 FEW025 29/23 Q1005 NOSIG
VHHH 301300Z 01009KT 9999 FEW025 29/23 Q1005 NOSIG
VHHH 301230Z 01009KT 9999 FEW025 30/23 Q1005 NOSIG
VHHH 301200Z 36010KT 9999 FEW025 30/23 Q1005 NOSIG
VHHH 301130Z 01008KT 9999 FEW025 SCT045 30/23 Q1004 NOSIG
VHHH 301100Z 01009KT 9999 FEW025 30/23 Q1004 NOSIG
VHHH 301030Z 36009KT 9999 FEW028 30/23 Q1004 NOSIG
VHHH 301000Z 01010KT 9999 FEW025 SCT040 30/23 Q1004 NOSIG
